OBJECT B                
1 51825U 22019B   26097.96674219  .00065729  00000+0  64812-3 0  9995
2 51825  97.3491 186.5076 0004942  27.5941 332.5581 15.65727835228745
